QIANFAN-49              
1 62250U 24232P   25250.18590499  .00000065  00000+0  81153-4 0  9999
2 62250  88.9956  50.9737 0016033 111.9448 248.3409 13.50959223 54800
QIANFAN-50              
1 62251U 24232Q   25250.21064361  .00000056  00000+0  67529-4 0  9999
2 62251  88.9961  50.9739 0017680 113.3131 246.9883 13.50965773 54833
QIANFAN-51              
1 62252U 24232R   25250.19417768  .00000046  00000+0  52368-4 0  9994
2 62252  88.9955  50.9755 0015128 116.2081 244.0628 13.50968232 54824
QIANFAN-52              
1 62253U 24232S   25250.22301322  .00000062  00000+0  77508-4 0  9998
2 62253  88.9952  50.8498 0017221 109.5686 250.7326 13.50962815 54917
QIANFAN-53              
1 62254U 24232T   25250.12834427  .00000032  00000+0  31370-4 0  9999
2 62254  88.9959  50.9567 0016078 110.6468 249.6409 13.50966672 54861
QIANFAN-54              
1 62255U 24232U   25250.24353402  .00000054  00000+0  65742-4 0  9996
2 62255  88.9951  50.6318 0003506 125.7747 234.3731 13.50968756 86380
QIANFAN-55              
1 62785U 25016A   25250.26937390  .00000100  00000+0  13659-3 0  9992
2 62785  88.9789 113.1753 0015479 268.6564  91.2814 13.50963458 34166
QIANFAN-56              
1 62786U 25016B   25250.21193022  .00000115  00000+0  15916-3 0  9998
2 62786  88.9762 113.0440 0014157 271.7324  88.2206 13.50962540 34208
